NORAD_CAT_ID,OBJECT_NAME,OBJECT_TYPE,EPOCH,MEAN_MOTION,ECCENTRICITY,INCLINATION,RA_OF_ASC_NODE,ARG_OF_PERICENTER,MEAN_ANOMALY,BSTAR,MEAN_MOTION_DOT,MEAN_MOTION_DDOT,TLE_LINE0,TLE_LINE1,TLE_LINE2,SEMIMAJOR_AXIS,PERIOD,APOGEE,PERIGEE,DECAYED
56815.0,STARLINK-6057,PAYLOAD,2024-02-23 14:36:23,14.98336786,0.0003045,69.9981,63.1988,269.8335,90.2476,5.9115e-05,6.13e-06,0.0,0 STARLINK-6057,1 56815U 23078BA  24054.60860124  .00000613  00000-0  59115-4 0  9992,2 56815  69.9981  63.1988 0003045 269.8335  90.2476 14.98336786 41077,6950.172,96.107,574.153,569.921,0.0
56815.0,STARLINK-6057,PAYLOAD,2024-02-23 17:48:40,14.98327054,0.000302,69.9982,62.8621,268.6635,91.4178,-5.8884e-05,-7.95e-06,0.0,0 STARLINK-6057,1 56815U 23078BA  24054.74212989 -.00000795  00000-0 -58884-4 0  9992,2 56815  69.9982  62.8621 0003020 268.6635  91.4178 14.98327054 41352,6950.202,96.107,574.166,569.968,0.0
56815.0,STARLINK-6057,PAYLOAD,2024-02-24 11:26:08,14.98332479,0.0003044,69.9982,61.0103,267.9089,92.1721,2.225e-05,1.72e-06,0.0,0 STARLINK-6057,1 56815U 23078BA  24055.47648468  .00000172  00000-0  22250-4 0  9993,2 56815  69.9982  61.0103 0003044 267.9089  92.1721 14.98332479 41460,6950.185,96.107,574.166,569.935,0.0
56815.0,STARLINK-6057,PAYLOAD,2024-02-24 14:38:24,14.98333519,0.0003047,69.9983,60.6736,268.0834,91.9976,1.9431e-05,1.39e-06,0.0,0 STARLINK-6057,1 56815U 23078BA  24055.61000390  .00000139  00000-0  19431-4 0  9995,2 56815  69.9983  60.6736 0003047 268.0834  91.9976 14.98333519 41220,6950.182,96.107,574.165,569.929,0.0
56815.0,STARLINK-6057,PAYLOAD,2024-02-24 22:39:04,14.98330849,0.0003048,69.9982,59.8318,267.8108,92.2702,-3.4211e-05,-5.01e-06,0.0,0 STARLINK-6057,1 56815U 23078BA  24055.94380656 -.00000501  00000-0 -34211-4 0  9995,2 56815  69.9982  59.8318 0003048 267.8108  92.2702 14.98330849 41276,6950.19,96.107,574.174,569.937,0.0
56815.0,STARLINK-6057,PAYLOAD,2024-02-25 09:52:01,14.98333354,0.0003058,69.9985,58.6536,268.2757,91.8052,1.3603e-05,6.9e-07,0.0,0 STARLINK-6057,1 56815U 23078BA  24056.41112415  .00000069  00000-0  13603-4 0  9993,2 56815  69.9985  58.6536 0003058 268.2757  91.8052 14.98333354 41349,6950.183,96.107,574.173,569.922,0.0
56815.0,STARLINK-6057,PAYLOAD,2024-02-25 17:52:41,14.98331855,0.0003025,69.9986,57.8118,269.1749,90.9064,-2.7824e-05,-4.25e-06,0.0,0 STARLINK-6057,1 56815U 23078BA  24056.74492590 -.00000425  00000-0 -27824-4 0  9992,2 56815  69.9986  57.8118 0003025 269.1749  90.9064 14.98331855 41653,6950.187,96.107,574.155,569.95,0.0
56815.0,STARLINK-6057,PAYLOAD,2024-02-26 09:54:02,14.98332228,0.0003017,69.9986,56.1286,268.1631,91.9183,4.8553e-05,4.86e-06,0.0,0 STARLINK-6057,1 56815U 23078BA  24057.41252408  .00000486  00000-0  48553-4 0  9996,2 56815  69.9986  56.1286 0003017 268.1631  91.9183 14.98332228 41491,6950.186,96.107,574.148,569.954,0.0
56815.0,STARLINK-6057,PAYLOAD,2024-02-27 03:31:31,14.98328528,0.0002979,69.999,54.2767,268.6757,91.4061,1.4624e-05,8.1e-07,0.0,0 STARLINK-6057,1 56815U 23078BA  24058.14688724  .00000081  00000-0  14624-4 0  9994,2 56815  69.9990  54.2767 0002979 268.6757  91.4061 14.98328528 41868,6950.197,96.107,574.133,569.992,0.0
56815.0,STARLINK-6057,PAYLOAD,2024-02-27 09:56:03,14.98331313,0.0002533,69.9993,53.604,261.4655,98.6217,8.2049e-06,5e-08,0.0,0 STARLINK-6057,1 56815U 23078BA  24058.41392613  .00000005  00000-0  82049-5 0  9996,2 56815  69.9993  53.6040 0002533 261.4655  98.6217 14.98331313 41646,6950.189,96.107,573.814,570.293,0.0
56815.0,STARLINK-6057,PAYLOAD,2024-02-27 22:45:07,14.98323649,0.0002806,69.9994,52.2582,269.9341,90.1496,0.00017198,1.959e-05,0.0,0 STARLINK-6057,1 56815U 23078BA  24058.94800587  .00001959  00000-0  17198-3 0  9998,2 56815  69.9994  52.2582 0002806 269.9341  90.1496 14.98323649 41729,6950.213,96.107,574.028,570.127,0.0
56815.0,STARLINK-6057,PAYLOAD,2024-02-28 03:33:31,14.98332219,0.0002842,69.9994,51.7524,272.7368,87.3465,4.0207e-05,3.87e-06,0.0,0 STARLINK-6057,1 56815U 23078BA  24059.14828421  .00000387  00000-0  40207-4 0  9990,2 56815  69.9994  51.7524 0002842 272.7368  87.3465 14.98332219 42010,6950.186,96.107,574.026,570.076,0.0
56815.0,STARLINK-6057,PAYLOAD,2024-02-28 09:58:03,14.98331491,0.0002777,69.9995,51.0797,268.3792,91.7049,5.919e-05,6.13e-06,0.0,0 STARLINK-6057,1 56815U 23078BA  24059.41532358  .00000613  00000-0  59190-4 0  9994,2 56815  69.9995  51.0797 0002777 268.3792  91.7049 14.98331491 41797,6950.188,96.107,573.983,570.123,0.0
56815.0,STARLINK-6057,PAYLOAD,2024-02-28 16:22:36,14.98328728,0.0002723,69.9997,50.4057,269.6169,90.4678,-1.6842e-05,-2.94e-06,0.0,0 STARLINK-6057,1 56815U 23078BA  24059.68236712 -.00000294  00000-0 -16842-4 0  9992,2 56815  69.9997  50.4057 0002723 269.6169  90.4678 14.98328728 41832,6950.197,96.107,573.954,570.169,0.0
56815.0,STARLINK-6057,PAYLOAD,2024-02-29 03:35:32,14.98330647,0.0002867,69.9993,49.2275,269.6794,90.4036,1.6629e-05,1.05e-06,0.0,0 STARLINK-6057,1 56815U 23078BA  24060.14968456  .00000105  00000-0  16629-4 0  9994,2 56815  69.9993  49.2275 0002867 269.6794  90.4036 14.98330647 42167,6950.191,96.107,574.049,570.063,0.0
56815.0,STARLINK-6057,PAYLOAD,2024-02-29 08:23:57,14.98329733,0.0002883,69.9993,48.7225,269.1432,90.9397,4.8568e-06,-3.5e-07,0.0,0 STARLINK-6057,1 56815U 23078BA  24060.34996540 -.00000035  00000-0  48568-5 0  9992,2 56815  69.9993  48.7225 0002883 269.1432  90.9397 14.98329733 41931,6950.194,96.107,574.062,570.055,0.0
56815.0,STARLINK-6057,PAYLOAD,2024-02-29 22:49:09,14.98330077,0.0002907,69.9993,47.207,268.3556,91.727,-4.1406e-05,-5.87e-06,0.0,0 STARLINK-6057,1 56815U 23078BA  24060.95080620 -.00000587  00000-0 -41406-4 0  9998,2 56815  69.9993  47.2070 0002907 268.3556  91.7270 14.98330077 42021,6950.193,96.107,574.078,570.037,0.0
56815.0,STARLINK-6057,PAYLOAD,2024-03-01 03:37:33,14.98330719,0.0002931,69.9992,46.702,268.2901,91.7922,-3.3471e-05,-4.92e-06,0.0,0 STARLINK-6057,1 56815U 23078BA  24061.15108533 -.00000492  00000-0 -33471-4 0  9993,2 56815  69.9992  46.7020 0002931 268.2901  91.7922 14.98330719 42318,6950.191,96.107,574.093,570.019,0.0
56815.0,STARLINK-6057,PAYLOAD,2024-03-01 08:25:57,14.98331363,0.0002929,69.9994,46.1971,267.9824,92.0999,-2.3611e-05,-3.75e-06,0.0,0 STARLINK-6057,1 56815U 23078BA  24061.35136454 -.00000375  00000-0 -23611-4 0  9993,2 56815  69.9994  46.1971 0002929 267.9824  92.0999 14.98331363 42084,6950.189,96.107,574.089,570.018,0.0
56815.0,STARLINK-6057,PAYLOAD,2024-03-01 16:26:37,14.98339191,0.000305,69.9994,45.3551,261.8837,98.1977,-0.00014797,-1.859e-05,0.0,0 STARLINK-6057,1 56815U 23078BA  24061.68516104 -.00001859  00000-0 -14797-3 0  9995,2 56815  69.9994  45.3551 0003050 261.8837  98.1977 14.98339191 42138,6950.164,96.106,574.149,569.91,0.0
56815.0,STARLINK-6057,PAYLOAD,2024-03-02 03:39:34,14.98329566,0.0003001,69.9993,44.1769,268.613,91.4685,3.4144e-05,3.14e-06,0.0,0 STARLINK-6057,1 56815U 23078BA  24062.15248366  .00000314  00000-0  34144-4 0  9992,2 56815  69.9993  44.1769 0003001 268.6130  91.4685 14.98329566 42465,6950.194,96.107,574.145,569.973,0.0
56815.0,STARLINK-6057,PAYLOAD,2024-03-02 08:27:58,14.98334393,0.0002983,69.9993,43.6718,268.4358,91.6459,6.5134e-05,6.84e-06,0.0,0 STARLINK-6057,1 56815U 23078BA  24062.35275951  .00000684  00000-0  65134-4 0  9997,2 56815  69.9993  43.6718 0002983 268.4358  91.6459 14.98334393 42231,6950.179,96.107,574.118,569.971,0.0
56815.0,STARLINK-6057,PAYLOAD,2024-03-03 08:29:59,14.98328772,0.0003053,69.9997,41.1475,269.5152,90.5657,2.4552e-05,2e-06,0.0,0 STARLINK-6057,1 56815U 23078BA  24063.35416460  .00000200  00000-0  24552-4 0  9993,2 56815  69.9997  41.1475 0003053 269.5152  90.5657 14.98328772 42648,6950.197,96.107,574.184,569.94,0.0
56815.0,STARLINK-6057,PAYLOAD,2024-03-04 08:31:59,14.983434,0.0002542,70.0,38.6222,259.0517,101.0356,0.00010531,1.164e-05,0.0,0 STARLINK-6057,1 56815U 23078BA  24064.35555130  .00001164  00000-0  10531-3 0  9993,2 56815  70.0000  38.6222 0002542 259.0517 101.0356 14.98343400 42793,6950.151,96.106,573.783,570.25,0.0
56815.0,STARLINK-6057,PAYLOAD,2024-03-04 22:57:13,14.98321223,0.0001994,70.0035,37.1104,238.8547,121.2417,7.5737e-05,8.11e-06,0.0,0 STARLINK-6057,1 56815U 23078BA  24064.95640599  .00000811  00000-0  75737-4 0  9991,2 56815  70.0035  37.1104 0001994 238.8547 121.2417 14.98321223 42625,6950.22,96.108,573.471,570.699,0.0
56815.0,STARLINK-6057,PAYLOAD,2024-03-05 03:45:38,14.98320768,0.0002871,70.0,36.6023,273.5822,86.5008,-4.8364e-05,-6.7e-06,0.0,0 STARLINK-6057,1 56815U 23078BA  24065.15669062 -.00000670  00000-0 -48364-4 0  9991,2 56815  70.0000  36.6023 0002871 273.5822  86.5008 14.98320768 42912,6950.221,96.108,574.082,570.091,0.0
56815.0,STARLINK-6057,PAYLOAD,2024-03-05 08:34:02,14.98322902,0.0002826,70.0,36.0974,269.8601,90.2234,-2.2208e-05,-3.58e-06,0.0,0 STARLINK-6057,1 56815U 23078BA  24065.35696922 -.00000358  00000-0 -22208-4 0  9990,2 56815  70.0000  36.0974 0002826 269.8601  90.2234 14.98322902 42683,6950.215,96.107,574.044,570.116,0.0
56815.0,STARLINK-6057,PAYLOAD,2024-03-05 14:58:34,14.98326768,0.0002864,70.0,35.4242,270.8092,89.2739,-5.917e-06,-1.64e-06,0.0,0 STARLINK-6057,1 56815U 23078BA  24065.62400715 -.00000164  00000-0 -59170-5 0  9997,2 56815  70.0000  35.4242 0002864 270.8092  89.2739 14.98326768 42987,6950.203,96.107,574.058,570.077,0.0
56815.0,STARLINK-6057,PAYLOAD,2024-03-06 06:59:54,14.98335917,0.000275,70.0002,33.7403,269.3417,90.7427,1.1238e-05,4.1e-07,0.0,0 STARLINK-6057,1 56815U 23078BA  24066.29160078  .00000041  00000-0  11238-4 0  9990,2 56815  70.0002  33.7403 0002750 269.3417  90.7427 14.98335917 43086,6950.175,96.107,573.951,570.128,0.0
56815.0,STARLINK-6057,PAYLOAD,2024-03-07 03:49:38,14.98333513,0.0002864,70.0,31.5495,268.8152,91.2679,0.00037983,4.442e-05,0.0,0 STARLINK-6057,1 56815U 23078BA  24067.15946784  .00004442  00000-0  37983-3 0  9995,2 56815  70.0000  31.5495 0002864 268.8152  91.2679 14.98333513 43217,6950.182,96.107,574.038,570.056,0.0
